CCSDS_OMM_VERS = 2.0
CREATION_DATE  = 
ORIGINATOR     = 

OBJECT_NAME    = STARLINK-36743
OBJECT_ID      = 2026-034AC
CENTER_NAME    = EARTH
REF_FRAME      = TEME
TIME_SYSTEM    = UTC
MEAN_ELEMENT_THEORY = SGP/SGP4

EPOCH          = 2026-02-27T16:00:03.999744
MEAN_MOTION    = 15.90707197
ECCENTRICITY   = .0000591
INCLINATION    = 53.1499
RA_OF_ASC_NODE = 261.4737
ARG_OF_PERICENTER = 81.0244
MEAN_ANOMALY   = 260.5145

EPHEMERIS_TYPE = 0
CLASSIFICATION_TYPE = U
NORAD_CAT_ID   = 67876
ELEMENT_SET_NO = 999
REV_AT_EPOCH   = 225
BSTAR          = -.51976E-2
MEAN_MOTION_DOT = -.1442203E-1
MEAN_MOTION_DDOT = 0

CCSDS_OMM_VERS = 2.0
CREATION_DATE  = 
ORIGINATOR     = 

OBJECT_NAME    = STARLINK-36784
OBJECT_ID      = 2026-034AD
CENTER_NAME    = EARTH
REF_FRAME      = TEME
TIME_SYSTEM    = UTC
MEAN_ELEMENT_THEORY = SGP/SGP4

EPOCH          = 2026-02-27T16:00:03.999744
MEAN_MOTION    = 15.90853016
ECCENTRICITY   = .0000566
INCLINATION    = 53.1500
RA_OF_ASC_NODE = 261.4689
ARG_OF_PERICENTER = 81.7995
MEAN_ANOMALY   = 262.1739

EPHEMERIS_TYPE = 0
CLASSIFICATION_TYPE = U
NORAD_CAT_ID   = 67877
ELEMENT_SET_NO = 999
REV_AT_EPOCH   = 225
BSTAR          = -.51402E-2
MEAN_MOTION_DOT = -.1638439E-1
MEAN_MOTION_DDOT = .74396E-3

CCSDS_OMM_VERS = 2.0
CREATION_DATE  = 
ORIGINATOR     = 

OBJECT_NAME    = STARLINK-36689
OBJECT_ID      = 2026-034AE
CENTER_NAME    = EARTH
REF_FRAME      = TEME
TIME_SYSTEM    = UTC
MEAN_ELEMENT_THEORY = SGP/SGP4

EPOCH          = 2026-02-27T16:00:03.999744
MEAN_MOTION    = 15.91003161
ECCENTRICITY   = .0000517
INCLINATION    = 53.1500
RA_OF_ASC_NODE = 261.4641
ARG_OF_PERICENTER = 83.9027
MEAN_ANOMALY   = 262.3933

EPHEMERIS_TYPE = 0
CLASSIFICATION_TYPE = U
NORAD_CAT_ID   = 67878
ELEMENT_SET_NO = 999
REV_AT_EPOCH   = 225
BSTAR          = -.50909E-2
MEAN_MOTION_DOT = -.1635319E-1
MEAN_MOTION_DDOT = .74243E-3

CCSDS_OMM_VERS = 2.0
CREATION_DATE  = 
ORIGINATOR     = 

OBJECT_NAME    = STARLINK-36818
OBJECT_ID      = 2026-035A
CENTER_NAME    = EARTH
REF_FRAME      = TEME
TIME_SYSTEM    = UTC
MEAN_ELEMENT_THEORY = SGP/SGP4

EPOCH          = 2026-02-27T16:00:03.999744
MEAN_MOTION    = 16.06328375
ECCENTRICITY   = .0001057
INCLINATION    = 97.2822
RA_OF_ASC_NODE = 350.1527
ARG_OF_PERICENTER = 98.3263
MEAN_ANOMALY   = 69.7149

EPHEMERIS_TYPE = 0
CLASSIFICATION_TYPE = U
NORAD_CAT_ID   = 67879
ELEMENT_SET_NO = 999
REV_AT_EPOCH   = 214
BSTAR          = -.90393E-3
MEAN_MOTION_DOT = -.664911E-2
MEAN_MOTION_DDOT = .16558E-3

CCSDS_OMM_VERS = 2.0
CREATION_DATE  = 
ORIGINATOR     = 

OBJECT_NAME    = STARLINK-36821
OBJECT_ID      = 2026-035B
CENTER_NAME    = EARTH
REF_FRAME      = TEME
TIME_SYSTEM    = UTC
MEAN_ELEMENT_THEORY = SGP/SGP4

EPOCH          = 2026-02-27T16:00:03.999744
MEAN_MOTION    = 16.06523230
ECCENTRICITY   = .0000976
INCLINATION    = 97.2822
RA_OF_ASC_NODE = 350.1542
ARG_OF_PERICENTER = 95.2613
MEAN_ANOMALY   = 75.8655

EPHEMERIS_TYPE = 0
CLASSIFICATION_TYPE = U
NORAD_CAT_ID   = 67880
ELEMENT_SET_NO = 999
REV_AT_EPOCH   = 214
BSTAR          = -.88572E-3
MEAN_MOTION_DOT = -.659404E-2
MEAN_MOTION_DDOT = .16344E-3

CCSDS_OMM_VERS = 2.0
CREATION_DATE  = 
ORIGINATOR     = 

OBJECT_NAME    = STARLINK-36808
OBJECT_ID      = 2026-035C
CENTER_NAME    = EARTH
REF_FRAME      = TEME
TIME_SYSTEM    = UTC
MEAN_ELEMENT_THEORY = SGP/SGP4

EPOCH          = 2026-02-27T16:00:03.999744
MEAN_MOTION    = 16.06392733
ECCENTRICITY   = .0001025
INCLINATION    = 97.2821
RA_OF_ASC_NODE = 350.1535
ARG_OF_PERICENTER = 98.0766
MEAN_ANOMALY   = 71.1559

EPHEMERIS_TYPE = 0
CLASSIFICATION_TYPE = U
NORAD_CAT_ID   = 67881
ELEMENT_SET_NO = 999
REV_AT_EPOCH   = 214
BSTAR          = -.89557E-3
MEAN_MOTION_DOT = -.661393E-2
MEAN_MOTION_DDOT = .16408E-3

CCSDS_OMM_VERS = 2.0
CREATION_DATE  = 
ORIGINATOR     = 

OBJECT_NAME    = STARLINK-36817
OBJECT_ID      = 2026-035D
CENTER_NAME    = EARTH
REF_FRAME      = TEME
TIME_SYSTEM    = UTC
MEAN_ELEMENT_THEORY = SGP/SGP4

EPOCH          = 2026-02-27T16:00:03.999744
MEAN_MOTION    = 16.06767908
ECCENTRICITY   = .0000984
INCLINATION    = 97.2817
RA_OF_ASC_NODE = 350.1557
ARG_OF_PERICENTER = 96.9640
MEAN_ANOMALY   = 77.8587

EPHEMERIS_TYPE = 0
CLASSIFICATION_TYPE = U
NORAD_CAT_ID   = 67882
ELEMENT_SET_NO = 999
REV_AT_EPOCH   = 214
BSTAR          = -.8511E-3
MEAN_MOTION_DOT = -.643372E-2
MEAN_MOTION_DDOT = .1566E-3

CCSDS_OMM_VERS = 2.0
CREATION_DATE  = 
ORIGINATOR     = 

OBJECT_NAME    = STARLINK-36856
OBJECT_ID      = 2026-035E
CENTER_NAME    = EARTH
REF_FRAME      = TEME
TIME_SYSTEM    = UTC
MEAN_ELEMENT_THEORY = SGP/SGP4

EPOCH          = 2026-02-27T16:00:03.999744
MEAN_MOTION    = 16.06668021
ECCENTRICITY   = .0000995
INCLINATION    = 97.2820
RA_OF_ASC_NODE = 350.1550
ARG_OF_PERICENTER = 93.8652
MEAN_ANOMALY   = 79.2307

EPHEMERIS_TYPE = 0
CLASSIFICATION_TYPE = U
NORAD_CAT_ID   = 67883
ELEMENT_SET_NO = 999
REV_AT_EPOCH   = 214
BSTAR          = -.8864E-3
MEAN_MOTION_DOT = -.665804E-2
MEAN_MOTION_DDOT = .16671E-3

CCSDS_OMM_VERS = 2.0
CREATION_DATE  = 
ORIGINATOR     = 

OBJECT_NAME    = STARLINK-36842
OBJECT_ID      = 2026-035F
CENTER_NAME    = EARTH
REF_FRAME      = TEME
TIME_SYSTEM    = UTC
MEAN_ELEMENT_THEORY = SGP/SGP4

EPOCH          = 2026-02-27T16:00:03.999744
MEAN_MOTION    = 16.06908883
ECCENTRICITY   = .000087
INCLINATION    = 97.2819
RA_OF_ASC_NODE = 350.1564
ARG_OF_PERICENTER = 102.9664
MEAN_ANOMALY   = 73.4397

EPHEMERIS_TYPE = 0
CLASSIFICATION_TYPE = U
NORAD_CAT_ID   = 67884
ELEMENT_SET_NO = 999
REV_AT_EPOCH   = 214
BSTAR          = -.84938E-3
MEAN_MOTION_DOT = -.647671E-2
MEAN_MOTION_DDOT = .15884E-3

CCSDS_OMM_VERS = 2.0
CREATION_DATE  = 
ORIGINATOR     = 

OBJECT_NAME    = STARLINK-36826
OBJECT_ID      = 2026-035G
CENTER_NAME    = EARTH
REF_FRAME      = TEME
TIME_SYSTEM    = UTC
MEAN_ELEMENT_THEORY = SGP/SGP4

EPOCH          = 2026-02-27T16:00:03.999744
MEAN_MOTION    = 16.06970998
ECCENTRICITY   = .0000971
INCLINATION    = 97.2819
RA_OF_ASC_NODE = 350.1569
ARG_OF_PERICENTER = 89.0177
MEAN_ANOMALY   = 88.6306

EPHEMERIS_TYPE = 0
CLASSIFICATION_TYPE = U
NORAD_CAT_ID   = 67885
ELEMENT_SET_NO = 999
REV_AT_EPOCH   = 214
BSTAR          = -.86037E-3
MEAN_MOTION_DOT = -.658532E-2
MEAN_MOTION_DDOT = .16397E-3

CCSDS_OMM_VERS = 2.0
CREATION_DATE  = 
ORIGINATOR     = 

OBJECT_NAME    = STARLINK-36390
OBJECT_ID      = 2026-035H
CENTER_NAME    = EARTH
REF_FRAME      = TEME
TIME_SYSTEM    = UTC
MEAN_ELEMENT_THEORY = SGP/SGP4

EPOCH          = 2026-02-27T16:00:03.999744
MEAN_MOTION    = 16.07140510
ECCENTRICITY   = .0000856
INCLINATION    = 97.2816
RA_OF_ASC_NODE = 350.1577
ARG_OF_PERICENTER = 112.4942
MEAN_ANOMALY   = 67.1013

EPHEMERIS_TYPE = 0
CLASSIFICATION_TYPE = U
NORAD_CAT_ID   = 67886
ELEMENT_SET_NO = 999
REV_AT_EPOCH   = 219
BSTAR          = -.80319E-3
MEAN_MOTION_DOT = -.621461E-2
MEAN_MOTION_DDOT = .14751E-3

CCSDS_OMM_VERS = 2.0
CREATION_DATE  = 
ORIGINATOR     = 

OBJECT_NAME    = STARLINK-36368
OBJECT_ID      = 2026-035J
CENTER_NAME    = EARTH
REF_FRAME      = TEME
TIME_SYSTEM    = UTC
MEAN_ELEMENT_THEORY = SGP/SGP4

EPOCH          = 2026-02-27T16:00:03.999744
MEAN_MOTION    = 16.07252407
ECCENTRICITY   = .0000963
INCLINATION    = 97.2814
RA_OF_ASC_NODE = 350.1588
ARG_OF_PERICENTER = 115.6260
MEAN_ANOMALY   = 65.7876

EPHEMERIS_TYPE = 0
CLASSIFICATION_TYPE = U
NORAD_CAT_ID   = 67887
ELEMENT_SET_NO = 999
REV_AT_EPOCH   = 214
BSTAR          = -.8177E-3
MEAN_MOTION_DOT = -.637041E-2
MEAN_MOTION_DDOT = .15469E-3

