STARLINK-36743          
1 67876U 26034AC  26058.66671296 -.01442203  00000+0 -51976-2 0  9990
2 67876  53.1499 261.4737 0000591  81.0244 260.5145 15.90707197  2259
STARLINK-36784          
1 67877U 26034AD  26058.66671296 -.01638439  74396-3 -51402-2 0  9996
2 67877  53.1500 261.4689 0000566  81.7995 262.1739 15.90853016  2250
STARLINK-36689          
1 67878U 26034AE  26058.66671296 -.01635319  74243-3 -50909-2 0  9993
2 67878  53.1500 261.4641 0000517  83.9027 262.3933 15.91003161  2252
STARLINK-36818          
1 67879U 26035A   26058.66671296 -.00664911  16558-3 -90393-3 0  9991
2 67879  97.2822 350.1527 0001057  98.3263  69.7149 16.06328375  2140
STARLINK-36821          
1 67880U 26035B   26058.66671296 -.00659404  16344-3 -88572-3 0  9993
2 67880  97.2822 350.1542 0000976  95.2613  75.8655 16.06523230  2140
STARLINK-36808          
1 67881U 26035C   26058.66671296 -.00661393  16408-3 -89557-3 0  9999
2 67881  97.2821 350.1535 0001025  98.0766  71.1559 16.06392733  2142
STARLINK-36817          
1 67882U 26035D   26058.66671296 -.00643372  15660-3 -85110-3 0  9997
2 67882  97.2817 350.1557 0000984  96.9640  77.8587 16.06767908  2147
STARLINK-36856          
1 67883U 26035E   26058.66671296 -.00665804  16671-3 -88640-3 0  9996
2 67883  97.2820 350.1550 0000995  93.8652  79.2307 16.06668021  2148
STARLINK-36842          
1 67884U 26035F   26058.66671296 -.00647671  15884-3 -84938-3 0  9990
2 67884  97.2819 350.1564 0000870 102.9664  73.4397 16.06908883  2147
STARLINK-36826          
1 67885U 26035G   26058.66671296 -.00658532  16397-3 -86037-3 0  9991
2 67885  97.2819 350.1569 0000971  89.0177  88.6306 16.06970998  2143
STARLINK-36390          
1 67886U 26035H   26058.66671296 -.00621461  14751-3 -80319-3 0  9992
2 67886  97.2816 350.1577 0000856 112.4942  67.1013 16.07140510  2195
STARLINK-36368          
1 67887U 26035J   26058.66671296 -.00637041  15469-3 -81770-3 0  9993
2 67887  97.2814 350.1588 0000963 115.6260  65.7876 16.07252407  2148
